NORAD_CAT_ID,OBJECT_NAME,OBJECT_TYPE,EPOCH,MEAN_MOTION,ECCENTRICITY,INCLINATION,RA_OF_ASC_NODE,ARG_OF_PERICENTER,MEAN_ANOMALY,BSTAR,MEAN_MOTION_DOT,MEAN_MOTION_DDOT,TLE_LINE0,TLE_LINE1,TLE_LINE2,SEMIMAJOR_AXIS,PERIOD,APOGEE,PERIGEE,DECAYED
55668.0,STARLINK-5455,PAYLOAD,2023-05-29 07:58:43,15.69907536,0.0003299,70.0009,227.1921,268.8262,91.2556,-1.2058e-05,-1.661e-05,0.0,0 STARLINK-5455,1 55668U 23021AS  23149.33244630 -.00001661  00000-0 -12058-4 0  9998,2 55668  70.0009 227.1921 0003299 268.8262  91.2556 15.69907536 16320,6737.299,91.725,361.386,356.941,0.0
55668.0,STARLINK-5455,PAYLOAD,2023-05-29 14:05:43,15.69918242,0.000313,70.001,226.477,258.9471,101.1373,-4.1193e-06,-7.08e-06,0.0,0 STARLINK-5455,1 55668U 23021AS  23149.58730923 -.00000708  00000-0 -41193-5 0  9994,2 55668  70.0010 226.4770 0003130 258.9471 101.1373 15.69918242 16674,6737.268,91.725,361.242,357.024,0.0
55668.0,STARLINK-5455,PAYLOAD,2023-05-29 15:37:28,15.69918819,0.000312,70.001,226.2969,254.3981,105.6871,-3.272e-06,-6.06e-06,0.0,0 STARLINK-5455,1 55668U 23021AS  23149.65102541 -.00000606  00000-0 -32720-5 0  9994,2 55668  70.0010 226.2969 0003120 254.3981 105.6871 15.69918819 16376,6737.266,91.724,361.233,357.029,0.0
55668.0,STARLINK-5455,PAYLOAD,2023-05-30 08:26:45,15.69906639,0.0003675,69.9993,224.3244,282.1049,77.9735,5.8553e-05,6.829e-05,0.0,0 STARLINK-5455,1 55668U 23021AS  23150.35191692  .00006829  00000-0  58553-4 0  9990,2 55668  69.9993 224.3244 0003675 282.1049  77.9735 15.69906639 16486,6737.301,91.725,361.642,356.69,0.0
55668.0,STARLINK-5455,PAYLOAD,2023-05-30 14:33:45,15.6992541,0.0002983,69.9988,223.606,268.5232,91.5622,3.6784e-05,4.213e-05,0.0,0 STARLINK-5455,1 55668U 23021AS  23150.60677419  .00004213  00000-0  36784-4 0  9991,2 55668  69.9988 223.6060 0002983 268.5232  91.5622 15.69925410 16521,6737.247,91.724,361.122,357.103,0.0
55668.0,STARLINK-5455,PAYLOAD,2023-05-31 07:23:01,15.69919778,0.0003219,69.9996,221.637,268.4575,91.6252,2.4633e-05,2.75e-05,0.0,0 STARLINK-5455,1 55668U 23021AS  23151.30766146  .00002750  00000-0  24633-4 0  9999,2 55668  69.9996 221.6370 0003219 268.4575  91.6252 15.69919778 16636,6737.264,91.724,361.297,356.96,0.0
55668.0,STARLINK-5455,PAYLOAD,2023-05-31 13:30:02,15.69924059,0.0003098,69.9995,220.9207,266.4431,93.641,2.1856e-05,2.416e-05,0.0,0 STARLINK-5455,1 55668U 23021AS  23151.56252673  .00002416  00000-0  21856-4 0  9995,2 55668  69.9995 220.9207 0003098 266.4431  93.6410 15.69924059 16984,6737.251,91.724,361.203,357.029,0.0
55668.0,STARLINK-5455,PAYLOAD,2023-06-01 07:51:03,15.69924058,0.0003236,69.9996,218.7707,269.3003,90.7822,1.4082e-05,1.481e-05,0.0,0 STARLINK-5455,1 55668U 23021AS  23152.32712601  .00001481  00000-0  14082-4 0  9996,2 55668  69.9996 218.7707 0003236 269.3003  90.7822 15.69924058 17105,6737.251,91.724,361.296,356.936,0.0
55668.0,STARLINK-5455,PAYLOAD,2023-06-01 21:36:49,15.69936218,0.0003229,70.0005,217.1608,266.6505,93.4321,4.6787e-05,5.419e-05,0.0,0 STARLINK-5455,1 55668U 23021AS  23152.90056852  .00005419  00000-0  46787-4 0  9991,2 55668  70.0005 217.1608 0003229 266.6505  93.4321 15.69936218 16880,6737.216,91.723,361.257,356.906,0.0
55668.0,STARLINK-5455,PAYLOAD,2023-06-02 06:47:21,15.69899185,0.0003394,69.999,216.0831,264.8549,95.2259,-3.7762e-05,-4.746e-05,0.0,0 STARLINK-5455,1 55668U 23021AS  23153.28288773 -.00004746  00000-0 -37762-4 0  9999,2 55668  69.9990 216.0831 0003394 264.8549  95.2259 15.69899185 16945,6737.322,91.726,361.474,356.901,0.0
55668.0,STARLINK-5455,PAYLOAD,2023-06-02 12:54:22,15.69904341,0.0003158,69.9986,215.3657,263.3399,96.7437,-2.7139e-05,-3.472e-05,0.0,0 STARLINK-5455,1 55668U 23021AS  23153.53775506 -.00003472  00000-0 -27139-4 0  9994,2 55668  69.9986 215.3657 0003158 263.3399  96.7437 15.69904341 17297,6737.308,91.725,361.3,357.045,0.0
55668.0,STARLINK-5455,PAYLOAD,2023-06-02 14:26:07,15.69906279,0.0003078,70.0008,215.1925,247.5922,112.4948,-2.0981e-05,-2.732e-05,0.0,0 STARLINK-5455,1 55668U 23021AS  23153.60147178 -.00002732  00000-0 -20981-4 0  9996,2 55668  70.0008 215.1925 0003078 247.5922 112.4948 15.69906279 16999,6737.302,91.725,361.241,357.093,0.0
55668.0,STARLINK-5455,PAYLOAD,2023-06-03 07:15:22,15.69931145,0.0003937,69.9986,213.2195,271.7847,88.2898,2.3972e-05,2.671e-05,0.0,0 STARLINK-5455,1 55668U 23021AS  23154.30234349  .00002671  00000-0  23972-4 0  9994,2 55668  69.9986 213.2195 0003937 271.7847  88.2898 15.69931145 17106,6737.231,91.724,361.748,356.444,0.0
55668.0,STARLINK-5455,PAYLOAD,2023-06-03 13:22:22,15.69935999,0.0003886,69.9975,212.5012,269.2449,90.8301,2.0778e-05,2.287e-05,0.0,0 STARLINK-5455,1 55668U 23021AS  23154.55720625  .00002287  00000-0  20778-4 0  9992,2 55668  69.9975 212.5012 0003886 269.2449  90.8301 15.69935999 17454,6737.217,91.723,361.7,356.464,0.0
55668.0,STARLINK-5455,PAYLOAD,2023-06-03 21:01:08,15.69929081,0.0003514,69.9977,211.6051,267.5831,92.4963,4.0314e-06,2.72e-06,0.0,0 STARLINK-5455,1 55668U 23021AS  23154.87579296  .00000272  00000-0  40314-5 0  9994,2 55668  69.9977 211.6051 0003514 267.5831  92.4963 15.69929081 17506,6737.237,91.724,361.469,356.734,0.0
55668.0,STARLINK-5455,PAYLOAD,2023-06-04 06:11:40,15.69908909,0.0003165,69.9966,210.5299,266.3902,93.6932,2.9696e-05,3.357e-05,0.0,0 STARLINK-5455,1 55668U 23021AS  23155.25810357  .00003357  00000-0  29696-4 0  9999,2 55668  69.9966 210.5299 0003165 266.3902  93.6932 15.69908909 17251,6737.295,91.725,361.292,357.027,0.0
55668.0,STARLINK-5455,PAYLOAD,2023-06-04 13:50:25,15.69911846,0.0003111,69.997,209.6356,270.2264,89.8575,3.5875e-05,4.101e-05,0.0,0 STARLINK-5455,1 55668U 23021AS  23155.57668604  .00004101  00000-0  35875-4 0  9994,2 55668  69.9970 209.6356 0003111 270.2264  89.8575 15.69911846 17619,6737.286,91.725,361.247,357.055,0.0
55668.0,STARLINK-5455,PAYLOAD,2023-06-05 05:07:56,15.69926537,0.0003301,69.9961,207.8449,259.4961,100.5863,-6.0934e-07,-2.86e-06,0.0,0 STARLINK-5455,1 55668U 23021AS  23156.21384758 -.00000286  00000-0 -60934-6 0  9999,2 55668  69.9961 207.8449 0003301 259.4961 100.5863 15.69926537 17407,6737.244,91.724,361.333,356.885,0.0
55668.0,STARLINK-5455,PAYLOAD,2023-06-05 06:39:40,15.69936195,0.0003304,69.9972,207.6656,257.7168,102.3658,7.4672e-06,6.86e-06,0.0,0 STARLINK-5455,1 55668U 23021AS  23156.27755675  .00000686  00000-0  74672-5 0  9990,2 55668  69.9972 207.6656 0003304 257.7168 102.3658 15.69936195 17414,6737.217,91.723,361.308,356.856,0.0
55668.0,STARLINK-5455,PAYLOAD,2023-06-05 12:46:42,15.69924389,0.0003054,69.9973,206.947,277.4632,82.6217,2.4441e-06,8.1e-07,0.0,0 STARLINK-5455,1 55668U 23021AS  23156.53243204  .00000081  00000-0  24441-5 0  9997,2 55668  69.9973 206.9470 0003054 277.4632  82.6217 15.69924389 17769,6737.25,91.724,361.173,357.058,0.0
55668.0,STARLINK-5455,PAYLOAD,2023-06-06 11:42:58,15.69928562,0.0003282,69.9976,204.2618,264.018,96.0641,1.187e-05,1.215e-05,0.0,0 STARLINK-5455,1 55668U 23021AS  23157.48817836  .00001215  00000-0  11870-4 0  9991,2 55668  69.9976 204.2618 0003282 264.0180  96.0641 15.69928562 17914,6737.238,91.724,361.315,356.892,0.0
55668.0,STARLINK-5455,PAYLOAD,2023-06-06 13:14:43,15.69928824,0.0003202,69.9973,204.0826,260.5344,99.549,8.8038e-06,8.46e-06,0.0,0 STARLINK-5455,1 55668U 23021AS  23157.55189531  .00000846  00000-0  88038-5 0  9993,2 55668  69.9973 204.0826 0003202 260.5344  99.5490 15.69928824 17613,6737.238,91.724,361.26,356.945,0.0
55668.0,STARLINK-5455,PAYLOAD,2023-06-07 06:04:00,15.69917375,0.0003267,69.9981,202.1118,259.1379,100.9449,1.0925e-05,1.101e-05,0.0,0 STARLINK-5455,1 55668U 23021AS  23158.25278502  .00001101  00000-0  10925-4 0  9992,2 55668  69.9981 202.1118 0003267 259.1379 100.9449 15.69917375 17720,6737.27,91.725,361.336,356.934,0.0
55668.0,STARLINK-5455,PAYLOAD,2023-06-07 19:49:46,15.69920244,0.0003214,69.9983,200.5003,263.934,96.1489,9.8349e-06,9.7e-06,0.0,0 STARLINK-5455,1 55668U 23021AS  23158.82623560  .00000970  00000-0  98349-5 0  9993,2 55668  69.9983 200.5003 0003214 263.9340  96.1489 15.69920244 18124,6737.262,91.724,361.293,356.962,0.0
55668.0,STARLINK-5455,PAYLOAD,2023-06-08 06:32:02,15.69925255,0.0003225,69.9983,199.2467,263.2696,96.8133,9.0509e-06,8.76e-06,0.0,0 STARLINK-5455,1 55668U 23021AS  23159.27224994  .00000876  00000-0  90509-5 0  9996,2 55668  69.9983 199.2467 0003225 263.2696  96.8133 15.69925255 17883,6737.248,91.724,361.286,356.94,0.0
55668.0,STARLINK-5455,PAYLOAD,2023-06-08 12:39:02,15.69929123,0.0003269,69.998,198.5288,263.0988,96.9836,7.956e-06,7.44e-06,0.0,0 STARLINK-5455,1 55668U 23021AS  23159.52711403  .00000744  00000-0  79560-5 0  9998,2 55668  69.9980 198.5288 0003269 263.0988  96.9836 15.69929123 18232,6737.237,91.724,361.304,356.899,0.0
55668.0,STARLINK-5455,PAYLOAD,2023-06-09 08:31:49,15.6991713,0.0003288,69.997,196.1987,250.7527,109.3313,6.9855e-06,6.27e-06,0.0,0 STARLINK-5455,1 55668U 23021AS  23160.35543789  .00000627  00000-0  69855-5 0  9997,2 55668  69.9970 196.1987 0003288 250.7527 109.3313 15.69917130 18058,6737.271,91.725,361.351,356.921,0.0
55668.0,STARLINK-5455,PAYLOAD,2023-06-09 10:03:34,15.69917123,0.0003291,69.9972,196.0198,250.0697,110.0144,6.6e-06,5.81e-06,0.0,0 STARLINK-5455,1 55668U 23021AS  23160.41915488  .00000581  00000-0  66000-5 0  9991,2 55668  69.9972 196.0198 0003291 250.0697 110.0144 15.69917123 18376,6737.271,91.725,361.353,356.919,0.0
55668.0,STARLINK-5455,PAYLOAD,2023-06-09 19:14:05,15.69921901,0.0003376,69.9975,194.947,263.7334,96.3478,7.9428e-06,7.42e-06,0.0,0 STARLINK-5455,1 55668U 23021AS  23160.80145339  .00000742  00000-0  79428-5 0  9991,2 55668  69.9975 194.9470 0003376 263.7334  96.3478 15.69921901 18434,6737.257,91.724,361.397,356.848,0.0
55668.0,STARLINK-5455,PAYLOAD,2023-06-10 01:21:05,15.69925372,0.0003403,69.9977,194.2303,264.2624,95.8183,1.0861e-05,1.093e-05,0.0,0 STARLINK-5455,1 55668U 23021AS  23161.05631771  .00001093  00000-0  10861-4 0  9994,2 55668  69.9977 194.2303 0003403 264.2624  95.8183 15.69925372 18166,6737.248,91.724,361.405,356.82,0.0
